ONEWEB-0456             
1 51646U 22012AA  23363.62990203  .00000116  00000+0  29482-3 0  9992
2 51646  87.8896 215.1236 0002063  98.0936 262.0426 13.10368895 91406
ONEWEB-0457             
1 51647U 22012AB  23363.68352320 -.00000125  00000+0 -39324-3 0  9999
2 51647  87.8900 215.1205 0001287  65.3072 294.8190 13.10370224 91415
ONEWEB-0458             
1 51648U 22012AC  23363.62828843  .00014197  00000+0  40615-1 0  9997
2 51648  87.8908 215.1455 0002157  84.9798 275.1576 13.10298549 91363
ONEWEB-0461             
1 51649U 22012AD  23363.92966926  .00000011  00000+0 -39183-5 0  9999
2 51649  87.9197 184.8580 0001530  85.8071 274.3236 13.17650802 95330
ONEWEB-0463             
1 51650U 22012AE  23363.91226227  .00000006  00000+0 -16504-4 0  9998
2 51650  87.9205 184.8981 0001723  86.7523 273.3806 13.17642626 95116
ONEWEB-0464             
1 51651U 22012AF  23363.62503215 -.00000685  00000+0 -19986-2 0  9991
2 51651  87.8906 215.1346 0001614 101.1725 258.9584 13.10368924 91388
ONEWEB-0468             
1 51652U 22012AG  23363.63153313 -.00000573  00000+0 -16785-2 0  9993
2 51652  87.8905 215.1256 0001345  82.6028 277.5252 13.10369117 91360
ONEWEB-0473             
1 51653U 22012AH  23363.61691421 -.00000458  00000+0 -13471-2 0  9990
2 51653  87.8903 215.1328 0001379  92.5231 267.6054 13.10367611 91369
